COSMOS 2550             
1 48865U 21056A   25318.75195391  .00000519  00000+0  21570-4 0  9997
2 48865  67.1442  28.5905 0008347 271.4822  88.5376 15.33890068245836
CZ-2C R/B               
1 52794U 22058K   25318.65423110  .00028152  00000+0  53682-3 0  9999
2 52794  50.1894 186.5702 0048541  82.0323 278.6149 15.46605193192284
GSLV R/B                
1 54149U 22138AN  25319.43129190  .00004353  00000+0  38497-3 0  9996
2 54149  87.3855 204.6139 0020409 200.5038 159.5376 14.95931328166845
XRISM                   
1 57800U 23137A   25319.27209235  .00008043  00000+0  47761-3 0  9998
2 57800  31.0031 302.8367 0007986 325.8159  34.1964 15.09950107120470
ACS3                    
1 59588U 24077B   25319.51003162  .00033153  00000+0  29414-1 0  9998
2 59588  97.3055 281.1676 0058775  23.0584 337.3195 13.83852030 78370
