CCSDS_OMM_VERS = 2.0
CREATION_DATE  = 
ORIGINATOR     = 

OBJECT_NAME    = COSMOS 2550
OBJECT_ID      = 2021-056A
CENTER_NAME    = EARTH
REF_FRAME      = TEME
TIME_SYSTEM    = UTC
MEAN_ELEMENT_THEORY = SGP/SGP4

EPOCH          = 2025-11-14T18:02:48.817824
MEAN_MOTION    = 15.33890068
ECCENTRICITY   = .0008347
INCLINATION    = 67.1442
RA_OF_ASC_NODE = 28.5905
ARG_OF_PERICENTER = 271.4822
MEAN_ANOMALY   = 88.5376

EPHEMERIS_TYPE = 0
CLASSIFICATION_TYPE = U
NORAD_CAT_ID   = 48865
ELEMENT_SET_NO = 999
REV_AT_EPOCH   = 24583
BSTAR          = .2157E-4
MEAN_MOTION_DOT = .519E-5
MEAN_MOTION_DDOT = 0

CCSDS_OMM_VERS = 2.0
CREATION_DATE  = 
ORIGINATOR     = 

OBJECT_NAME    = CZ-2C R/B
OBJECT_ID      = 2022-058K
CENTER_NAME    = EARTH
REF_FRAME      = TEME
TIME_SYSTEM    = UTC
MEAN_ELEMENT_THEORY = SGP/SGP4

EPOCH          = 2025-11-14T15:42:05.567040
MEAN_MOTION    = 15.46605193
ECCENTRICITY   = .0048541
INCLINATION    = 50.1894
RA_OF_ASC_NODE = 186.5702
ARG_OF_PERICENTER = 82.0323
MEAN_ANOMALY   = 278.6149

EPHEMERIS_TYPE = 0
CLASSIFICATION_TYPE = U
NORAD_CAT_ID   = 52794
ELEMENT_SET_NO = 999
REV_AT_EPOCH   = 19228
BSTAR          = .53682E-3
MEAN_MOTION_DOT = .28152E-3
MEAN_MOTION_DDOT = 0

CCSDS_OMM_VERS = 2.0
CREATION_DATE  = 
ORIGINATOR     = 

OBJECT_NAME    = GSLV R/B
OBJECT_ID      = 2022-138AN
CENTER_NAME    = EARTH
REF_FRAME      = TEME
TIME_SYSTEM    = UTC
MEAN_ELEMENT_THEORY = SGP/SGP4

EPOCH          = 2025-11-15T10:21:03.620160
MEAN_MOTION    = 14.95931328
ECCENTRICITY   = .0020409
INCLINATION    = 87.3855
RA_OF_ASC_NODE = 204.6139
ARG_OF_PERICENTER = 200.5038
MEAN_ANOMALY   = 159.5376

EPHEMERIS_TYPE = 0
CLASSIFICATION_TYPE = U
NORAD_CAT_ID   = 54149
ELEMENT_SET_NO = 999
REV_AT_EPOCH   = 16684
BSTAR          = .38497E-3
MEAN_MOTION_DOT = .4353E-4
MEAN_MOTION_DDOT = 0

CCSDS_OMM_VERS = 2.0
CREATION_DATE  = 
ORIGINATOR     = 

OBJECT_NAME    = XRISM
OBJECT_ID      = 2023-137A
CENTER_NAME    = EARTH
REF_FRAME      = TEME
TIME_SYSTEM    = UTC
MEAN_ELEMENT_THEORY = SGP/SGP4

EPOCH          = 2025-11-15T06:31:48.779040
MEAN_MOTION    = 15.09950107
ECCENTRICITY   = .0007986
INCLINATION    = 31.0031
RA_OF_ASC_NODE = 302.8367
ARG_OF_PERICENTER = 325.8159
MEAN_ANOMALY   = 34.1964

EPHEMERIS_TYPE = 0
CLASSIFICATION_TYPE = U
NORAD_CAT_ID   = 57800
ELEMENT_SET_NO = 999
REV_AT_EPOCH   = 12047
BSTAR          = .47761E-3
MEAN_MOTION_DOT = .8043E-4
MEAN_MOTION_DDOT = 0

CCSDS_OMM_VERS = 2.0
CREATION_DATE  = 
ORIGINATOR     = 

OBJECT_NAME    = ACS3
OBJECT_ID      = 2024-077B
CENTER_NAME    = EARTH
REF_FRAME      = TEME
TIME_SYSTEM    = UTC
MEAN_ELEMENT_THEORY = SGP/SGP4

EPOCH          = 2025-11-15T12:14:26.731968
MEAN_MOTION    = 13.83852030
ECCENTRICITY   = .0058775
INCLINATION    = 97.3055
RA_OF_ASC_NODE = 281.1676
ARG_OF_PERICENTER = 23.0584
MEAN_ANOMALY   = 337.3195

EPHEMERIS_TYPE = 0
CLASSIFICATION_TYPE = U
NORAD_CAT_ID   = 59588
ELEMENT_SET_NO = 999
REV_AT_EPOCH   = 7837
BSTAR          = .29414E-1
MEAN_MOTION_DOT = .33153E-3
MEAN_MOTION_DDOT = 0

